[{"OBJECT_NAME":"IRIDIUM 163","OBJECT_ID":"2018-061G","EPOCH":"2026-03-09T13:59:42.401760","MEAN_MOTION":14.34217733,"ECCENTRICITY":0.0002172,"INCLINATION":86.3916,"RA_OF_ASC_NODE":98.3882,"ARG_OF_PERICENTER":91.0803,"MEAN_ANOMALY":269.0641,"EPHEMERIS_TYPE":0,"CLASSIFICATION_TYPE":"U","NORAD_CAT_ID":43575,"ELEMENT_SET_NO":999,"REV_AT_EPOCH":39910,"BSTAR":2.0406e-5,"MEAN_MOTION_DOT":7.7e-7,"MEAN_MOTION_DDOT":0},{"OBJECT_NAME":"FENGYUN 1C DEB","OBJECT_ID":"1999-025ATL","EPOCH":"2026-03-09T04:04:07.428288","MEAN_MOTION":14.29446204,"ECCENTRICITY":0.00410706,"INCLINATION":98.9098,"RA_OF_ASC_NODE":149.6573,"ARG_OF_PERICENTER":203.9652,"MEAN_ANOMALY":215.5574,"EPHEMERIS_TYPE":0,"CLASSIFICATION_TYPE":"U","NORAD_CAT_ID":30750,"ELEMENT_SET_NO":999,"REV_AT_EPOCH":98016,"BSTAR":0.0020070443,"MEAN_MOTION_DOT":5.125e-5,"MEAN_MOTION_DDOT":0}]
